[
    {
        "Altitude(m)": 604221.2082447995,
        "Argument of Periapsis(deg)": 0.0,
        "Eccentricity": 0.0,
        "Inclination(deg)": 60.0,
        "Latitude(deg)": 14.117268194942696,
        "Longitude(deg)": -166.66582492445391,
        "Mean Anomaly(deg)": 16.363599999999984,
        "RAAN(deg)": 285.0,
        "Satellite Name": "Test1 1255",
        "Satellite Number": 1255,
        "Semi-Major Axis(m)": 6980739.136638005,
        "Time(s)": 0
    },
    {
        "Altitude(m)": 604235.3492148857,
        "Argument of Periapsis(deg)": 0.00010418945913296404,
        "Eccentricity": 0.0,
        "Inclination(deg)": 60.0,
        "Latitude(deg)": 14.65166452647716,
        "Longitude(deg)": -166.37737711056153,
        "Mean Anomaly(deg)": 16.983706145461838,
        "RAAN(deg)": 284.9995799508602,
        "Satellite Name": "Test1 1255",
        "Satellite Number": 1255,
        "Semi-Major Axis(m)": 6980739.136638005,
        "Time(s)": 10
    },
    {
        "Altitude(m)": 604252.3872765896,
        "Argument of Periapsis(deg)": 0.0002083789182659281,
        "Eccentricity": 0.0,
        "Inclination(deg)": 60.0,
        "Latitude(deg)": 15.18557104285465,
        "Longitude(deg)": -166.08732629198084,
        "Mean Anomaly(deg)": 17.60381229092364,
        "RAAN(deg)": 284.9991599017205,
        "Satellite Name": "Test1 1255",
        "Satellite Number": 1255,
        "Semi-Major Axis(m)": 6980739.136638005,
        "Time(s)": 20
    },
    {
        "Altitude(m)": 604272.2906010994,
        "Argument of Periapsis(deg)": 0.00031256837739889213,
        "Eccentricity": 0.0,
        "Inclination(deg)": 60.0,
        "Latitude(deg)": 15.718966439392284,
        "Longitude(deg)": -165.79560495649955,
        "Mean Anomaly(deg)": 18.223918436385496,
        "RAAN(deg)": 284.9987398525808,
        "Satellite Name": "Test1 1255",
        "Satellite Number": 1255,
        "Semi-Major Axis(m)": 6980739.136638005,
        "Time(s)": 30
    },
    {
        "Altitude(m)": 604295.0260848834,
        "Argument of Periapsis(deg)": 0.0004167578365318562,
        "Eccentricity": 0.0,
        "Inclination(deg)": 60.0,
        "Latitude(deg)": 16.251829075688185,
        "Longitude(deg)": -165.5021440692922,
        "Mean Anomaly(deg)": 18.844024581847346,
        "RAAN(deg)": 284.998319803441,
        "Satellite Name": "Test1 1255",
        "Satellite Number": 1255,
        "Semi-Major Axis(m)": 6980739.136638005,
        "Time(s)": 40
    },
    {
        "Altitude(m)": 604320.5593686013,
        "Argument of Periapsis(deg)": 0.0005209472956648203,
        "Eccentricity": 0.0,
        "Inclination(deg)": 60.0,
        "Latitude(deg)": 16.784136959587077,
        "Longitude(deg)": -165.20687403733876,
        "Mean Anomaly(deg)": 19.46413072730915,
        "RAAN(deg)": 284.9978997543013,
        "Satellite Name": "Test1 1255",
        "Satellite Number": 1255,
        "Semi-Major Axis(m)": 6980739.136638005,
        "Time(s)": 50
    },
    {
        "Altitude(m)": 604348.8548566522,
        "Argument of Periapsis(deg)": 0.0006251367547977843,
        "Eccentricity": 0.0,
        "Inclination(deg)": 60.0,
        "Latitude(deg)": 17.31586773065988,
        "Longitude(deg)": -164.90972416011704,
        "Mean Anomaly(deg)": 20.084236872771,
        "RAAN(deg)": 284.99747970516154,
        "Satellite Name": "Test1 1255",
        "Satellite Number": 1255,
        "Semi-Major Axis(m)": 6980739.136638005,
        "Time(s)": 60
    },
    {
        "Altitude(m)": 604379.8757372744,
        "Argument of Periapsis(deg)": 0.0007293262139307483,
        "Eccentricity": 0.0,
        "Inclination(deg)": 60.0,
        "Latitude(deg)": 17.84699864317666,
        "Longitude(deg)": -164.61062207941518,
        "Mean Anomaly(deg)": 20.704343018232805,
        "RAAN(deg)": 284.9970596560218,
        "Satellite Name": "Test1 1255",
        "Satellite Number": 1255,
        "Semi-Major Axis(m)": 6980739.136638005,
        "Time(s)": 70
    },
    {
        "Altitude(m)": 604413.5840032059,
        "Argument of Periapsis(deg)": 0.0008335156730637124,
        "Eccentricity": 0.0,
        "Inclination(deg)": 60.0,
        "Latitude(deg)": 18.377506548552667,
        "Longitude(deg)": -164.3094947411141,
        "Mean Anomaly(deg)": 21.32444916369466,
        "RAAN(deg)": 284.99663960688207,
        "Satellite Name": "Test1 1255",
        "Satellite Number": 1255,
        "Semi-Major Axis(m)": 6980739.136638005,
        "Time(s)": 80
    },
    {
        "Altitude(m)": 604449.9404729542,
        "Argument of Periapsis(deg)": 0.0009377051321966765,
        "Eccentricity": 0.0,
        "Inclination(deg)": 60.0,
        "Latitude(deg)": 18.907367877235703,
        "Longitude(deg)": -164.0062678431703,
        "Mean Anomaly(deg)": 21.94455530915646,
        "RAAN(deg)": 284.9962195577423,
        "Satellite Name": "Test1 1255",
        "Satellite Number": 1255,
        "Semi-Major Axis(m)": 6980739.136638005,
        "Time(s)": 90
    },
    {
        "Altitude(m)": 604488.9048125886,
        "Argument of Periapsis(deg)": 0.0010418945913296407,
        "Eccentricity": 0.0,
        "Inclination(deg)": 60.0,
        "Latitude(deg)": 19.436558620013727,
        "Longitude(deg)": -163.70086528265014,
        "Mean Anomaly(deg)": 22.564661454618314,
        "RAAN(deg)": 284.99579950860254,
        "Satellite Name": "Test1 1255",
        "Satellite Number": 1255,
        "Semi-Major Axis(m)": 6980739.136638005,
        "Time(s)": 100
    },
    {
        "Altitude(m)": 604530.4355580739,
        "Argument of Periapsis(deg)": 0.0011460840504626045,
        "Eccentricity": 0.0,
        "Inclination(deg)": 60.0,
        "Latitude(deg)": 19.96505430871766,
        "Longitude(deg)": -163.39321011467032,
        "Mean Anomaly(deg)": 23.184767600080114,
        "RAAN(deg)": 284.99537945946287,
        "Satellite Name": "Test1 1255",
        "Satellite Number": 1255,
        "Semi-Major Axis(m)": 6980739.136638005,
        "Time(s)": 110
    },
    {
        "Altitude(m)": 604574.4901381184,
        "Argument of Periapsis(deg)": 0.0012502735095955685,
        "Eccentricity": 0.0,
        "Inclination(deg)": 60.0,
        "Latitude(deg)": 20.492829996288236,
        "Longitude(deg)": -163.08322399747846,
        "Mean Anomaly(deg)": 23.80487374554197,
        "RAAN(deg)": 284.9949594103231,
        "Satellite Name": "Test1 1255",
        "Satellite Number": 1255,
        "Semi-Major Axis(m)": 6980739.136638005,
        "Time(s)": 120
    },
    {
        "Altitude(m)": 604621.024897581,
        "Argument of Periapsis(deg)": 0.0013544629687285324,
        "Eccentricity": 0.0,
        "Inclination(deg)": 60.0,
        "Latitude(deg)": 21.01986023618031,
        "Longitude(deg)": -162.77082663653206,
        "Mean Anomaly(deg)": 24.424979891003822,
        "RAAN(deg)": 284.99453936118334,
        "Satellite Name": "Test1 1255",
        "Satellite Number": 1255,
        "Semi-Major Axis(m)": 6980739.136638005,
        "Time(s)": 130
    },
    {
        "Altitude(m)": 604669.9951213207,
        "Argument of Periapsis(deg)": 0.0014586524278614966,
        "Eccentricity": 0.0,
        "Inclination(deg)": 60.0,
        "Latitude(deg)": 21.546119061080002,
        "Longitude(deg)": -162.455936740436,
        "Mean Anomaly(deg)": 25.045086036465623,
        "RAAN(deg)": 284.99411931204355,
        "Satellite Name": "Test1 1255",
        "Satellite Number": 1255,
        "Semi-Major Axis(m)": 6980739.136638005,
        "Time(s)": 140
    },
    {
        "Altitude(m)": 604721.3550585883,
        "Argument of Periapsis(deg)": 0.0015628418869944607,
        "Eccentricity": 0.0,
        "Inclination(deg)": 60.0,
        "Latitude(deg)": 22.07157996089899,
        "Longitude(deg)": -162.13847146298025,
        "Mean Anomaly(deg)": 25.665192181927477,
        "RAAN(deg)": 284.9936992629039,
        "Satellite Name": "Test1 1255",
        "Satellite Number": 1255,
        "Semi-Major Axis(m)": 6980739.136638005,
        "Time(s)": 150
    },
    {
        "Altitude(m)": 604775.0579478532,
        "Argument of Periapsis(deg)": 0.0016670313461274247,
        "Eccentricity": 0.0,
        "Inclination(deg)": 60.0,
        "Latitude(deg)": 22.59621586001795,
        "Longitude(deg)": -161.81834584414523,
        "Mean Anomaly(deg)": 26.285298327389278,
        "RAAN(deg)": 284.99327921376414,
        "Satellite Name": "Test1 1255",
        "Satellite Number": 1255,
        "Semi-Major Axis(m)": 6980739.136638005,
        "Time(s)": 160
    },
    {
        "Altitude(m)": 604831.0560421098,
        "Argument of Periapsis(deg)": 0.0017712208052603888,
        "Eccentricity": 0.0,
        "Inclination(deg)": 60.0,
        "Latitude(deg)": 23.11999909375159,
        "Longitude(deg)": -161.4954737629425,
        "Mean Anomaly(deg)": 26.90540447285113,
        "RAAN(deg)": 284.99285916462435,
        "Satellite Name": "Test1 1255",
        "Satellite Number": 1255,
        "Semi-Major Axis(m)": 6980739.136638005,
        "Time(s)": 170
    },
    {
        "Altitude(m)": 604889.3006346435,
        "Argument of Periapsis(deg)": 0.001875410264393353,
        "Eccentricity": 0.0,
        "Inclination(deg)": 60.0,
        "Latitude(deg)": 23.64290138399645,
        "Longitude(deg)": -161.16976737634596,
        "Mean Anomaly(deg)": 27.525510618312932,
        "RAAN(deg)": 284.9924391154846,
        "Satellite Name": "Test1 1255",
        "Satellite Number": 1255,
        "Semi-Major Axis(m)": 6980739.136638005,
        "Time(s)": 180
    },
    {
        "Altitude(m)": 604949.7420852045,
        "Argument of Periapsis(deg)": 0.0019795997235263173,
        "Eccentricity": 0.0,
        "Inclination(deg)": 60.0,
        "Latitude(deg)": 24.164893814032524,
        "Longitude(deg)": -160.84113655718963,
        "Mean Anomaly(deg)": 28.14561676377479,
        "RAAN(deg)": 284.99201906634494,
        "Satellite Name": "Test1 1255",
        "Satellite Number": 1255,
        "Semi-Major Axis(m)": 6980739.136638005,
        "Time(s)": 190
    }
]